IRIDIUM 159             
1 43578U 18061K   25282.17910258  .00000169  00000+0  53202-4 0  9996
2 43578  86.4018 161.6314 0002062  87.9642 272.1790 14.34218563377400
IRIDIUM 180             
1 43922U 19002A   25282.24836672  .00000010  00000+0 -34230-5 0  9997
2 43922  86.3912  98.5140 0002231  91.2495 268.8957 14.34217685353025
IRIDIUM 176             
1 43923U 19002B   25282.22222162  .00000448  00000+0  67150-4 0  9999
2 43923  86.6038  98.5051 0002779  77.1113 283.0414 14.72252436362321
IRIDIUM 168             
1 43924U 19002C   25282.24202501  .00000019  00000+0 -29255-6 0  9998
2 43924  86.3916  98.5870 0002059  88.7437 271.3995 14.34217403353003
IRIDIUM 173             
1 43925U 19002D   25282.22933883  .00000055  00000+0  12598-4 0  9990
2 43925  86.3910  98.4913 0002313  89.8421 270.3040 14.34218016352980
IRIDIUM 169             
1 43926U 19002E   25282.29502771  .00000367  00000+0  11345-3 0  9990
2 43926  86.4212 130.1061 0003322  75.7998 284.3569 14.38609966354153
IRIDIUM 172             
1 43927U 19002F   25282.22299540  .00000069  00000+0  17401-4 0  9990
2 43927  86.3913  98.5012 0002167  96.6473 263.4970 14.34217961352990
IRIDIUM 175             
1 43928U 19002G   25282.28536998  .00001506  00000+0  23489-3 0  9997
2 43928  86.1513  44.4975 0001879  69.6768 290.4651 14.72247403362329
